start=new Date('2023-02-21T00:00:00.000Z').valueOf();
sats=[{"TIME_SYSTEM":"UTC","CENTER_NAME":"EARTH","LAUNCH_DATE":"2022-03-19","TLE_LINE1":"1 52098U 22029L   23051.70392176  .00005591  00000-0  36904-3 0  9990","RCS_SIZE":"LARGE","INCLINATION":"53.2156","PERIAPSIS":"538.900","RA_OF_ASC_NODE":"45.5129","TLE_LINE2":"2 52098  53.2156  45.5129 0001211  75.7600 284.3526 15.08842612 52637","ARG_OF_PERICENTER":"75.7600","DECAY_DATE":null,"ECCENTRICITY":"0.00012110","EPOCH":"2023-02-20T16:53:38.840064","REV_AT_EPOCH":"5263","EPHEMERIS_TYPE":"0","ELEMENT_SET_NO":"999","MEAN_ELEMENT_THEORY":"SGP4","NORAD_CAT_ID":"52098","OBJECT_TYPE":"PAYLOAD","GP_ID":"226168056","SEMIMAJOR_AXIS":"6917.872","MEAN_MOTION_DDOT":"0.0000000000000","CLASSIFICATION_TYPE":"U","APOAPSIS":"540.575","MEAN_MOTION_DOT":"0.00005591","PERIOD":"95.437","SITE":"AFETR","COUNTRY_CODE":"US","OBJECT_NAME":"STARLINK-3665","OBJECT_ID":"2022-029L","MEAN_ANOMALY":"284.3526","BSTAR":"0.00036904000000","REF_FRAME":"TEME","FILE":"3816077","MEAN_MOTION":"15.08842612"},{"ECCENTRICITY":"0.00009760","EPOCH":"2023-02-20T23:04:35.906880","EPHEMERIS_TYPE":"0","ELEMENT_SET_NO":"999","REV_AT_EPOCH":"5267","NORAD_CAT_ID":"52100","MEAN_ELEMENT_THEORY":"SGP4","GP_ID":"226189354","OBJECT_TYPE":"PAYLOAD","TLE_LINE1":"1 52100U 22029N   23051.96152670 -.00002682  00000-0 -15050-3 0  9994","TIME_SYSTEM":"UTC","CENTER_NAME":"EARTH","LAUNCH_DATE":"2022-03-19","RCS_SIZE":"LARGE","INCLINATION":"53.2158","PERIAPSIS":"539.089","TLE_LINE2":"2 52100  53.2158  44.3583 0000976  90.6300 269.4804 15.08833810 52671","RA_OF_ASC_NODE":"44.3583","DECAY_DATE":null,"ARG_OF_PERICENTER":"90.6300","OBJECT_NAME":"STARLINK-3702","BSTAR":"-0.00015050000000","OBJECT_ID":"2022-029N","MEAN_ANOMALY":"269.4804","REF_FRAME":"TEME","FILE":"3817127","MEAN_MOTION":"15.08833810","APOAPSIS":"540.439","SEMIMAJOR_AXIS":"6917.899","CLASSIFICATION_TYPE":"U","MEAN_MOTION_DDOT":"0.0000000000000","SITE":"AFETR","COUNTRY_CODE":"US","MEAN_MOTION_DOT":"-0.00002682","PERIOD":"95.438"},{"MEAN_MOTION_DOT":"0.00002040","PERIOD":"95.437","SITE":"AFETR","COUNTRY_CODE":"US","SEMIMAJOR_AXIS":"6917.875","CLASSIFICATION_TYPE":"U","MEAN_MOTION_DDOT":"0.0000000000000","APOAPSIS":"540.629","REF_FRAME":"TEME","FILE":"3815761","MEAN_MOTION":"15.08841734","OBJECT_NAME":"STARLINK-3703","OBJECT_ID":"2022-029P","MEAN_ANOMALY":"260.6742","BSTAR":"0.00014624000000","RA_OF_ASC_NODE":"47.3623","TLE_LINE2":"2 52101  53.2147  47.3623 0001285  99.4396 260.6742 15.08841734 52560","ARG_OF_PERICENTER":"99.4396","DECAY_DATE":null,"TIME_SYSTEM":"UTC","LAUNCH_DATE":"2022-03-19","CENTER_NAME":"EARTH","TLE_LINE1":"1 52101U 22029P   23051.29272850  .00002040  00000-0  14624-3 0  9996","RCS_SIZE":"LARGE","INCLINATION":"53.2147","PERIAPSIS":"538.851","NORAD_CAT_ID":"52101","MEAN_ELEMENT_THEORY":"SGP4","GP_ID":"226159143","OBJECT_TYPE":"PAYLOAD","ECCENTRICITY":"0.00012850","EPOCH":"2023-02-20T07:01:31.742400","REV_AT_EPOCH":"5256","EPHEMERIS_TYPE":"0","ELEMENT_SET_NO":"999"},{"OBJECT_TYPE":"PAYLOAD","GP_ID":"226166034","MEAN_ELEMENT_THEORY":"SGP4","NORAD_CAT_ID":"52102","REV_AT_EPOCH":"5272","EPHEMERIS_TYPE":"0","ELEMENT_SET_NO":"999","ECCENTRICITY":"0.00012690","EPOCH":"2023-02-20T10:24:12.411936","ARG_OF_PERICENTER":"87.3799","DECAY_DATE":null,"RA_OF_ASC_NODE":"36.7250","TLE_LINE2":"2 52102  53.2167  36.7250 0001269  87.3799 272.7338 15.08862250 52725","RCS_SIZE":"LARGE","PERIAPSIS":"538.800","INCLINATION":"53.2167","TIME_SYSTEM":"UTC","CENTER_NAME":"EARTH","LAUNCH_DATE":"2022-03-19","TLE_LINE1":"1 52102U 22029Q   23051.43347699  .00026204  00000-0  16574-2 0  9990","MEAN_MOTION":"15.08862250","REF_FRAME":"TEME","FILE":"3816009","MEAN_ANOMALY":"272.7338","OBJECT_ID":"2022-029Q","BSTAR":"0.00165740000000","OBJECT_NAME":"STARLINK-3709","MEAN_MOTION_DOT":"0.00026204","PERIOD":"95.436","COUNTRY_CODE":"US","SITE":"AFETR","SEMIMAJOR_AXIS":"6917.812","MEAN_MOTION_DDOT":"0.0000000000000","CLASSIFICATION_TYPE":"U","APOAPSIS":"540.555"},{"REF_FRAME":"TEME","FILE":"3816095","MEAN_MOTION":"15.08833644","OBJECT_NAME":"STARLINK-3705","OBJECT_ID":"2022-029R","MEAN_ANOMALY":"269.8143","BSTAR":"-0.00012145000000","MEAN_MOTION_DOT":"-0.00002220","PERIOD":"95.438","COUNTRY_CODE":"US","SITE":"AFETR","SEMIMAJOR_AXIS":"6917.900","MEAN_MOTION_DDOT":"0.0000000000000","CLASSIFICATION_TYPE":"U","APOAPSIS":"540.586","MEAN_ELEMENT_THEORY":"SGP4","NORAD_CAT_ID":"52103","OBJECT_TYPE":"PAYLOAD","GP_ID":"226168156","ECCENTRICITY":"0.00011870","EPOCH":"2023-02-20T16:07:16.947552","REV_AT_EPOCH":"5275","EPHEMERIS_TYPE":"0","ELEMENT_SET_NO":"999","RA_OF_ASC_NODE":"35.6476","TLE_LINE2":"2 52103  53.2184  35.6476 0001187  90.2985 269.8143 15.08833644 52751","ARG_OF_PERICENTER":"90.2985","DECAY_DATE":null,"TIME_SYSTEM":"UTC","CENTER_NAME":"EARTH","LAUNCH_DATE":"2022-03-19","TLE_LINE1":"1 52103U 22029R   23051.67172393 -.00002220  00000-0 -12145-3 0  9999","RCS_SIZE":"LARGE","PERIAPSIS":"538.944","INCLINATION":"53.2184"},{"GP_ID":"226192203","OBJECT_TYPE":"PAYLOAD","MEAN_ELEMENT_THEORY":"SGP4","NORAD_CAT_ID":"52105","REV_AT_EPOCH":"5272","ELEMENT_SET_NO":"999","EPHEMERIS_TYPE":"0","EPOCH":"2023-02-20T11:11:54.201984","ECCENTRICITY":"0.00014090","ARG_OF_PERICENTER":"79.5073","DECAY_DATE":null,"RA_OF_ASC_NODE":"36.5718","TLE_LINE2":"2 52105  53.2183  36.5718 0001409  79.5073 280.6078 15.08857609 52728","INCLINATION":"53.2183","PERIAPSIS":"538.717","RCS_SIZE":"LARGE","LAUNCH_DATE":"2022-03-19","CENTER_NAME":"EARTH","TIME_SYSTEM":"UTC","TLE_LINE1":"1 52105U 22029T   23051.46659956  .00006772  00000-0  44293-3 0  9996","MEAN_MOTION":"15.08857609","FILE":"3817234","REF_FRAME":"TEME","MEAN_ANOMALY":"280.6078","OBJECT_ID":"2022-029T","BSTAR":"0.00044293000000","OBJECT_NAME":"STARLINK-3706","PERIOD":"95.436","MEAN_MOTION_DOT":"0.00006772","COUNTRY_CODE":"US","SITE":"AFETR","CLASSIFICATION_TYPE":"U","MEAN_MOTION_DDOT":"0.0000000000000","SEMIMAJOR_AXIS":"6917.827","APOAPSIS":"540.666"},{"APOAPSIS":"540.799","MEAN_MOTION_DDOT":"0.0000000000000","CLASSIFICATION_TYPE":"U","SEMIMAJOR_AXIS":"6917.860","COUNTRY_CODE":"US","SITE":"AFETR","MEAN_MOTION_DOT":"0.00004845","PERIOD":"95.437","BSTAR":"0.00032221000000","OBJECT_ID":"2022-029U","MEAN_ANOMALY":"268.5054","OBJECT_NAME":"STARLINK-3670","MEAN_MOTION":"15.08846771","FILE":"3816010","REF_FRAME":"TEME","PERIAPSIS":"538.650","INCLINATION":"53.2155","RCS_SIZE":"LARGE","TLE_LINE1":"1 52106U 22029U   23051.68552689  .00004845  00000-0  32221-3 0  9993","CENTER_NAME":"EARTH","LAUNCH_DATE":"2022-03-19","TIME_SYSTEM":"UTC","DECAY_DATE":null,"ARG_OF_PERICENTER":"91.6116","TLE_LINE2":"2 52106  53.2155  45.5967 0001553  91.6116 268.5054 15.08846771 52623","RA_OF_ASC_NODE":"45.5967","ELEMENT_SET_NO":"999","EPHEMERIS_TYPE":"0","REV_AT_EPOCH":"5262","EPOCH":"2023-02-20T16:27:09.523296","ECCENTRICITY":"0.00015530","GP_ID":"226166079","OBJECT_TYPE":"PAYLOAD","NORAD_CAT_ID":"52106","MEAN_ELEMENT_THEORY":"SGP4"},{"LAUNCH_DATE":"2022-03-19","CENTER_NAME":"EARTH","TIME_SYSTEM":"UTC","TLE_LINE1":"1 52107U 22029V   23051.66068272  .00001669  00000-0  12290-3 0  9997","INCLINATION":"53.2180","PERIAPSIS":"538.834","RCS_SIZE":"LARGE","RA_OF_ASC_NODE":"35.7018","TLE_LINE2":"2 52107  53.2180  35.7018 0001318  87.8953 272.2190 15.08840005 52756","ARG_OF_PERICENTER":"87.8953","DECAY_DATE":null,"EPOCH":"2023-02-20T15:51:22.987008","ECCENTRICITY":"0.00013180","REV_AT_EPOCH":"5275","ELEMENT_SET_NO":"999","EPHEMERIS_TYPE":"0","NORAD_CAT_ID":"52107","MEAN_ELEMENT_THEORY":"SGP4","OBJECT_TYPE":"PAYLOAD","GP_ID":"226168184","MEAN_MOTION_DDOT":"0.0000000000000","CLASSIFICATION_TYPE":"U","SEMIMAJOR_AXIS":"6917.880","APOAPSIS":"540.657","PERIOD":"95.438","MEAN_MOTION_DOT":"0.00001669","COUNTRY_CODE":"US","SITE":"AFETR","OBJECT_NAME":"STARLINK-3658","OBJECT_ID":"2022-029V","MEAN_ANOMALY":"272.2190","BSTAR":"0.00012290000000","FILE":"3816097","REF_FRAME":"TEME","MEAN_MOTION":"15.08840005"},{"OBJECT_NAME":"STARLINK-3698","OBJECT_ID":"2022-029W","MEAN_ANOMALY":"261.4664","BSTAR":"0.00007132100000","FILE":"3817124","REF_FRAME":"TEME","MEAN_MOTION":"15.08844478","MEAN_MOTION_DDOT":"0.0000000000000","CLASSIFICATION_TYPE":"U","SEMIMAJOR_AXIS":"6917.867","APOAPSIS":"540.322","MEAN_MOTION_DOT":"0.00000848","PERIOD":"95.437","SITE":"AFETR","COUNTRY_CODE":"US","EPOCH":"2023-02-20T22:23:31.668288","ECCENTRICITY":"0.00008540","REV_AT_EPOCH":"5279","ELEMENT_SET_NO":"999","EPHEMERIS_TYPE":"0","MEAN_ELEMENT_THEORY":"SGP4","NORAD_CAT_ID":"52108","GP_ID":"226189299","OBJECT_TYPE":"PAYLOAD","CENTER_NAME":"EARTH","LAUNCH_DATE":"2022-03-19","TIME_SYSTEM":"UTC","TLE_LINE1":"1 52108U 22029W   23051.93300542  .00000848  00000-0  71321-4 0  9996","PERIAPSIS":"539.141","INCLINATION":"53.2176","RCS_SIZE":"LARGE","RA_OF_ASC_NODE":"34.4829","TLE_LINE2":"2 52108  53.2176  34.4829 0000854  98.6425 261.4664 15.08844478 52794","ARG_OF_PERICENTER":"98.6425","DECAY_DATE":null},{"MEAN_MOTION":"15.08841255","FILE":"3816098","REF_FRAME":"TEME","MEAN_ANOMALY":"280.5863","OBJECT_ID":"2022-029Y","BSTAR":"0.00013213000000","OBJECT_NAME":"STARLINK-3687","PERIOD":"95.437","MEAN_MOTION_DOT":"0.00001815","SITE":"AFETR","COUNTRY_CODE":"US","CLASSIFICATION_TYPE":"U","MEAN_MOTION_DDOT":"0.0000000000000","SEMIMAJOR_AXIS":"6917.877","APOAPSIS":"541.050","OBJECT_TYPE":"PAYLOAD","GP_ID":"226168214","MEAN_ELEMENT_THEORY":"SGP4","NORAD_CAT_ID":"52110","REV_AT_EPOCH":"5275","ELEMENT_SET_NO":"999","EPHEMERIS_TYPE":"0","EPOCH":"2023-02-20T15:56:41.542080","ECCENTRICITY":"0.00018910","ARG_OF_PERICENTER":"79.5342","DECAY_DATE":null,"RA_OF_ASC_NODE":"35.6806","TLE_LINE2":"2 52110  53.2168  35.6806 0001891  79.5342 280.5863 15.08841255 52753","INCLINATION":"53.2168","PERIAPSIS":"538.433","RCS_SIZE":"LARGE","CENTER_NAME":"EARTH","LAUNCH_DATE":"2022-03-19","TIME_SYSTEM":"UTC","TLE_LINE1":"1 52110U 22029Y   23051.66436970  .00001815  00000-0  13213-3 0  9994"}];
